CCSDS_OMM_VERS = 2.0
CREATION_DATE  = 
ORIGINATOR     = 

OBJECT_NAME    = STARLINK-36662
OBJECT_ID      = 2026-033M
CENTER_NAME    = EARTH
REF_FRAME      = TEME
TIME_SYSTEM    = UTC
MEAN_ELEMENT_THEORY = SGP/SGP4

EPOCH          = 2026-03-14T14:30:49.853088
MEAN_MOTION    = 15.84526221
ECCENTRICITY   = .00031278
INCLINATION    = 42.9964
RA_OF_ASC_NODE = 240.2934
ARG_OF_PERICENTER = 298.7172
MEAN_ANOMALY   = 61.3386

EPHEMERIS_TYPE = 0
CLASSIFICATION_TYPE = U
NORAD_CAT_ID   = 67832
ELEMENT_SET_NO = 999
REV_AT_EPOCH   = 541
BSTAR          = .27131546E-2
MEAN_MOTION_DOT = .696869E-2
MEAN_MOTION_DDOT = 0

CCSDS_OMM_VERS = 2.0
CREATION_DATE  = 
ORIGINATOR     = 

OBJECT_NAME    = STARLINK-36659
OBJECT_ID      = 2026-033N
CENTER_NAME    = EARTH
REF_FRAME      = TEME
TIME_SYSTEM    = UTC
MEAN_ELEMENT_THEORY = SGP/SGP4

EPOCH          = 2026-03-12T20:13:40.622592
MEAN_MOTION    = 15.81357226
ECCENTRICITY   = .00018161
INCLINATION    = 42.9970
RA_OF_ASC_NODE = 252.0859
ARG_OF_PERICENTER = 307.9497
MEAN_ANOMALY   = 52.1210

EPHEMERIS_TYPE = 0
CLASSIFICATION_TYPE = U
NORAD_CAT_ID   = 67833
ELEMENT_SET_NO = 999
REV_AT_EPOCH   = 512
BSTAR          = -.25045565E-2
MEAN_MOTION_DOT = -.484356E-2
MEAN_MOTION_DDOT = 0

CCSDS_OMM_VERS = 2.0
CREATION_DATE  = 
ORIGINATOR     = 

OBJECT_NAME    = STARLINK-36655
OBJECT_ID      = 2026-033P
CENTER_NAME    = EARTH
REF_FRAME      = TEME
TIME_SYSTEM    = UTC
MEAN_ELEMENT_THEORY = SGP/SGP4

EPOCH          = 2026-03-14T14:00:01.999872
MEAN_MOTION    = 15.68126396
ECCENTRICITY   = .0001262
INCLINATION    = 42.9988
RA_OF_ASC_NODE = 241.6154
ARG_OF_PERICENTER = 273.0867
MEAN_ANOMALY   = 213.5992

EPHEMERIS_TYPE = 0
CLASSIFICATION_TYPE = U
NORAD_CAT_ID   = 67834
ELEMENT_SET_NO = 999
REV_AT_EPOCH   = 545
BSTAR          = -.19207533E-1
MEAN_MOTION_DOT = -.1946607E-1
MEAN_MOTION_DDOT = 0

CCSDS_OMM_VERS = 2.0
CREATION_DATE  = 
ORIGINATOR     = 

OBJECT_NAME    = STARLINK-36657
OBJECT_ID      = 2026-033Q
CENTER_NAME    = EARTH
REF_FRAME      = TEME
TIME_SYSTEM    = UTC
MEAN_ELEMENT_THEORY = SGP/SGP4

EPOCH          = 2026-03-14T14:00:01.999872
MEAN_MOTION    = 15.72220008
ECCENTRICITY   = .00013251
INCLINATION    = 42.9990
RA_OF_ASC_NODE = 241.4992
ARG_OF_PERICENTER = 271.7664
MEAN_ANOMALY   = 261.0380

EPHEMERIS_TYPE = 0
CLASSIFICATION_TYPE = U
NORAD_CAT_ID   = 67835
ELEMENT_SET_NO = 999
REV_AT_EPOCH   = 545
BSTAR          = -.16093224E-1
MEAN_MOTION_DOT = -.1939682E-1
MEAN_MOTION_DDOT = 0

CCSDS_OMM_VERS = 2.0
CREATION_DATE  = 
ORIGINATOR     = 

OBJECT_NAME    = STARLINK-36650
OBJECT_ID      = 2026-033R
CENTER_NAME    = EARTH
REF_FRAME      = TEME
TIME_SYSTEM    = UTC
MEAN_ELEMENT_THEORY = SGP/SGP4

EPOCH          = 2026-03-14T14:00:01.999872
MEAN_MOTION    = 15.63788899
ECCENTRICITY   = .00014435
INCLINATION    = 42.9990
RA_OF_ASC_NODE = 241.7433
ARG_OF_PERICENTER = 274.3749
MEAN_ANOMALY   = 160.8338

EPHEMERIS_TYPE = 0
CLASSIFICATION_TYPE = U
NORAD_CAT_ID   = 67836
ELEMENT_SET_NO = 999
REV_AT_EPOCH   = 545
BSTAR          = -.22850535E-1
MEAN_MOTION_DOT = -.1941887E-1
MEAN_MOTION_DDOT = 0

CCSDS_OMM_VERS = 2.0
CREATION_DATE  = 
ORIGINATOR     = 

OBJECT_NAME    = STARLINK-36649
OBJECT_ID      = 2026-033S
CENTER_NAME    = EARTH
REF_FRAME      = TEME
TIME_SYSTEM    = UTC
MEAN_ELEMENT_THEORY = SGP/SGP4

EPOCH          = 2026-03-14T14:00:01.999872
MEAN_MOTION    = 15.67697501
ECCENTRICITY   = .0001403
INCLINATION    = 42.9989
RA_OF_ASC_NODE = 241.5954
ARG_OF_PERICENTER = 275.4786
MEAN_ANOMALY   = 218.8548

EPHEMERIS_TYPE = 0
CLASSIFICATION_TYPE = U
NORAD_CAT_ID   = 67837
ELEMENT_SET_NO = 999
REV_AT_EPOCH   = 545
BSTAR          = -.19487675E-1
MEAN_MOTION_DOT = -.19411E-1
MEAN_MOTION_DDOT = 0

CCSDS_OMM_VERS = 2.0
CREATION_DATE  = 
ORIGINATOR     = 

OBJECT_NAME    = STARLINK-36654
OBJECT_ID      = 2026-033T
CENTER_NAME    = EARTH
REF_FRAME      = TEME
TIME_SYSTEM    = UTC
MEAN_ELEMENT_THEORY = SGP/SGP4

EPOCH          = 2026-03-14T14:00:01.999872
MEAN_MOTION    = 15.65691390
ECCENTRICITY   = .00014273
INCLINATION    = 42.9986
RA_OF_ASC_NODE = 241.6502
ARG_OF_PERICENTER = 279.4644
MEAN_ANOMALY   = 192.5855

EPHEMERIS_TYPE = 0
CLASSIFICATION_TYPE = U
NORAD_CAT_ID   = 67838
ELEMENT_SET_NO = 999
REV_AT_EPOCH   = 545
BSTAR          = -.21191495E-1
MEAN_MOTION_DOT = -.194399E-1
MEAN_MOTION_DDOT = 0

CCSDS_OMM_VERS = 2.0
CREATION_DATE  = 
ORIGINATOR     = 

OBJECT_NAME    = STARLINK-36652
OBJECT_ID      = 2026-033U
CENTER_NAME    = EARTH
REF_FRAME      = TEME
TIME_SYSTEM    = UTC
MEAN_ELEMENT_THEORY = SGP/SGP4

EPOCH          = 2026-03-14T14:00:01.999872
MEAN_MOTION    = 15.63986990
ECCENTRICITY   = .00014841
INCLINATION    = 42.9991
RA_OF_ASC_NODE = 241.7030
ARG_OF_PERICENTER = 276.4168
MEAN_ANOMALY   = 174.6616

EPHEMERIS_TYPE = 0
CLASSIFICATION_TYPE = U
NORAD_CAT_ID   = 67839
ELEMENT_SET_NO = 999
REV_AT_EPOCH   = 545
BSTAR          = -.22704032E-1
MEAN_MOTION_DOT = -.1944464E-1
MEAN_MOTION_DDOT = 0

CCSDS_OMM_VERS = 2.0
CREATION_DATE  = 
ORIGINATOR     = 

OBJECT_NAME    = STARLINK-36651
OBJECT_ID      = 2026-033V
CENTER_NAME    = EARTH
REF_FRAME      = TEME
TIME_SYSTEM    = UTC
MEAN_ELEMENT_THEORY = SGP/SGP4

EPOCH          = 2026-03-14T14:00:01.999872
MEAN_MOTION    = 15.65508879
ECCENTRICITY   = .00013625
INCLINATION    = 42.9990
RA_OF_ASC_NODE = 241.6350
ARG_OF_PERICENTER = 278.6530
MEAN_ANOMALY   = 199.4240

EPHEMERIS_TYPE = 0
CLASSIFICATION_TYPE = U
NORAD_CAT_ID   = 67840
ELEMENT_SET_NO = 999
REV_AT_EPOCH   = 545
BSTAR          = -.21306215E-1
MEAN_MOTION_DOT = -.1940507E-1
MEAN_MOTION_DDOT = 0

CCSDS_OMM_VERS = 2.0
CREATION_DATE  = 
ORIGINATOR     = 

OBJECT_NAME    = STARLINK-36656
OBJECT_ID      = 2026-033W
CENTER_NAME    = EARTH
REF_FRAME      = TEME
TIME_SYSTEM    = UTC
MEAN_ELEMENT_THEORY = SGP/SGP4

EPOCH          = 2026-03-14T14:00:01.999872
MEAN_MOTION    = 15.66608403
ECCENTRICITY   = .00013697
INCLINATION    = 42.9988
RA_OF_ASC_NODE = 241.5871
ARG_OF_PERICENTER = 274.9317
MEAN_ANOMALY   = 222.5371

EPHEMERIS_TYPE = 0
CLASSIFICATION_TYPE = U
NORAD_CAT_ID   = 67841
ELEMENT_SET_NO = 999
REV_AT_EPOCH   = 545
BSTAR          = -.20368464E-1
MEAN_MOTION_DOT = -.1940107E-1
MEAN_MOTION_DDOT = 0

CCSDS_OMM_VERS = 2.0
CREATION_DATE  = 
ORIGINATOR     = 

OBJECT_NAME    = STARLINK-36653
OBJECT_ID      = 2026-033X
CENTER_NAME    = EARTH
REF_FRAME      = TEME
TIME_SYSTEM    = UTC
MEAN_ELEMENT_THEORY = SGP/SGP4

EPOCH          = 2026-03-14T14:00:01.999872
MEAN_MOTION    = 15.65599066
ECCENTRICITY   = .00013462
INCLINATION    = 42.9988
RA_OF_ASC_NODE = 241.6104
ARG_OF_PERICENTER = 279.0845
MEAN_ANOMALY   = 208.8587

EPHEMERIS_TYPE = 0
CLASSIFICATION_TYPE = U
NORAD_CAT_ID   = 67842
ELEMENT_SET_NO = 999
REV_AT_EPOCH   = 545
BSTAR          = -.21191213E-1
MEAN_MOTION_DOT = -.1937491E-1
MEAN_MOTION_DDOT = 0

CCSDS_OMM_VERS = 2.0
CREATION_DATE  = 
ORIGINATOR     = 

OBJECT_NAME    = STARLINK-36589
OBJECT_ID      = 2026-033Y
CENTER_NAME    = EARTH
REF_FRAME      = TEME
TIME_SYSTEM    = UTC
MEAN_ELEMENT_THEORY = SGP/SGP4

EPOCH          = 2026-03-14T14:00:01.999872
MEAN_MOTION    = 15.66646397
ECCENTRICITY   = .00013041
INCLINATION    = 42.9990
RA_OF_ASC_NODE = 241.5646
ARG_OF_PERICENTER = 275.7709
MEAN_ANOMALY   = 230.7704

EPHEMERIS_TYPE = 0
CLASSIFICATION_TYPE = U
NORAD_CAT_ID   = 67843
ELEMENT_SET_NO = 999
REV_AT_EPOCH   = 545
BSTAR          = -.20315732E-1
MEAN_MOTION_DOT = -.1938282E-1
MEAN_MOTION_DDOT = 0

